[{"OBJECT_NAME":"ICEYE-X30","OBJECT_ID":"2023-084R","EPOCH":"2026-03-09T21:18:40.033440","MEAN_MOTION":15.72701856,"ECCENTRICITY":0.00049319,"INCLINATION":97.5707,"RA_OF_ASC_NODE":220.1726,"ARG_OF_PERICENTER":282.9335,"MEAN_ANOMALY":77.1377,"EPHEMERIS_TYPE":0,"CLASSIFICATION_TYPE":"U","NORAD_CAT_ID":56947,"ELEMENT_SET_NO":999,"REV_AT_EPOCH":15325,"BSTAR":0.00083938221,"MEAN_MOTION_DOT":0.00114026,"MEAN_MOTION_DDOT":0},{"OBJECT_NAME":"STARLINK-11474 [DTC]","OBJECT_ID":"2024-217J","EPOCH":"2026-03-09T23:32:38.596128","MEAN_MOTION":15.69853391,"ECCENTRICITY":0.00025977,"INCLINATION":53.1583,"RA_OF_ASC_NODE":69.4998,"ARG_OF_PERICENTER":120.0766,"MEAN_ANOMALY":240.051,"EPHEMERIS_TYPE":0,"CLASSIFICATION_TYPE":"U","NORAD_CAT_ID":62065,"ELEMENT_SET_NO":999,"REV_AT_EPOCH":7522,"BSTAR":0.0017757363,"MEAN_MOTION_DOT":0.0022171,"MEAN_MOTION_DDOT":0}]
